{"type": "FeatureCollection", "features": [ {"type": "Feature", "properties": {"norad_id": 66638, "name": "STARLINK-35972", "group": "last-30-days", "lat": -35.22327598289636, "lon": 157.18949596650668, "alt_km": 416.7535303875993, "timestamp": "2025-12-12T07:43:19.258901+00:00", "meta": {"OBJECT_NAME": "STARLINK-35972", "OBJECT_ID": "2025-271X", "EPOCH": "2025-12-11T20:00:01.999872", "MEAN_MOTION": 15.53791484, "ECCENTRICITY": 0.0001002, "INCLINATION": 53.1594, "RA_OF_ASC_NODE": 191.498, "ARG_OF_PERICENTER": 93.7322, "MEAN_ANOMALY": 8.6855, "EPHEMERIS_TYPE": 0, "CLASSIFICATION_TYPE": "U", "NORAD_CAT_ID": 66638, "ELEMENT_SET_NO": 999, "REV_AT_EPOCH": 409, "BSTAR": -0.035297745, "MEAN_MOTION_DOT": -0.02055097, "MEAN_MOTION_DDOT": 0}, "tle": {"line1": "1 66638U 25271X   25345.83335648 -.02055097  00000+0 -35298-1 0  9992", "line2": "2 66638  53.1594 191.4980 0001002  93.7322   8.6855 15.53791484  4091"}}, "geometry": {"type": "Point", "coordinates": [157.18949596650668, -35.22327598289636]}}, {"type": "Feature", "properties": {"norad_id": 66639, "name": "STARLINK-35908", "group": "last-30-days", "lat": -33.913657093563415, "lon": 158.8763865225579, "alt_km": 416.57592483843746, "timestamp": "2025-12-12T07:43:19.258911+00:00", "meta": {"OBJECT_NAME": "STARLINK-35908", "OBJECT_ID": "2025-271Y", "EPOCH": "2025-12-11T20:00:01.999872", "MEAN_MOTION": 15.53791758, "ECCENTRICITY": 0.00010033, "INCLINATION": 53.1593, "RA_OF_ASC_NODE": 191.4934, "ARG_OF_PERICENTER": 82.6279, "MEAN_ANOMALY": 21.7057, "EPHEMERIS_TYPE": 0, "CLASSIFICATION_TYPE": "U", "NORAD_CAT_ID": 66639, "ELEMENT_SET_NO": 999, "REV_AT_EPOCH": 409, "BSTAR": -0.035310364, "MEAN_MOTION_DOT": -0.02055772, "MEAN_MOTION_DDOT": 0}, "tle": {"line1": "1 66639U 25271Y   25345.83335648 -.02055772  00000+0 -35310-1 0  9998", "line2": "2 66639  53.1593 191.4934 0001003  82.6279  21.7057 15.53791758  4093"}}, "geometry": {"type": "Point", "coordinates": [158.8763865225579, -33.913657093563415]}}, {"type": "Feature", "properties": {"norad_id": 66640, "name": "STARLINK-35921", "group": "last-30-days", "lat": -32.579674151669224, "lon": 160.51525007763652, "alt_km": 416.38591638645175, "timestamp": "2025-12-12T07:43:19.258946+00:00", "meta": {"OBJECT_NAME": "STARLINK-35921", "OBJECT_ID": "2025-271Z", "EPOCH": "2025-12-11T20:00:01.999872", "MEAN_MOTION": 15.53791123, "ECCENTRICITY": 9.618e-05, "INCLINATION": 53.1595, "RA_OF_ASC_NODE": 191.4897, "ARG_OF_PERICENTER": 90.8332, "MEAN_ANOMALY": 15.4188, "EPHEMERIS_TYPE": 0, "CLASSIFICATION_TYPE": "U", "NORAD_CAT_ID": 66640, "ELEMENT_SET_NO": 999, "REV_AT_EPOCH": 409, "BSTAR": -0.035289773, "MEAN_MOTION_DOT": -0.02054635, "MEAN_MOTION_DDOT": 0}, "tle": {"line1": "1 66640U 25271Z   25345.83335648 -.02054635  00000+0 -35290-1 0  9994", "line2": "2 66640  53.1595 191.4897 0000961  90.8332  15.4188 15.53791123  4099"}}, "geometry": {"type": "Point", "coordinates": [160.51525007763652, -32.579674151669224]}}, {"type": "Feature", "properties": {"norad_id": 66641, "name": "STARLINK-35923", "group": "last-30-days", "lat": -27.051305937211428, "lon": 166.61413086266418, "alt_km": 415.9650034820861, "timestamp": "2025-12-12T07:43:19.258961+00:00", "meta": {"OBJECT_NAME": "STARLINK-35923", "OBJECT_ID": "2025-271AA", "EPOCH": "2025-12-11T20:00:01.999872", "MEAN_MOTION": 15.53790219, "ECCENTRICITY": 9.128e-05, "INCLINATION": 53.1591, "RA_OF_ASC_NODE": 191.4729, "ARG_OF_PERICENTER": 95.1241, "MEAN_ANOMALY": 18.7936, "EPHEMERIS_TYPE": 0, "CLASSIFICATION_TYPE": "U", "NORAD_CAT_ID": 66641, "ELEMENT_SET_NO": 999, "REV_AT_EPOCH": 409, "BSTAR": -0.035230462, "MEAN_MOTION_DOT": -0.02051466, "MEAN_MOTION_DDOT": 0}, "tle": {"line1": "1 66641U 25271AA  25345.83335648 -.02051466  00000+0 -35230-1 0  9998", "line2": "2 66641  53.1591 191.4729 0000912  95.1241  18.7936 15.53790219  4095"}}, "geometry": {"type": "Point", "coordinates": [166.61413086266418, -27.051305937211428]}}, {"type": "Feature", "properties": {"norad_id": 66642, "name": "STARLINK-35926", "group": "last-30-days", "lat": -28.461416742277628, "lon": 165.14944347690934, "alt_km": 416.1504883379421, "timestamp": "2025-12-12T07:43:19.258972+00:00", "meta": {"OBJECT_NAME": "STARLINK-35926", "OBJECT_ID": "2025-271AB", "EPOCH": "2025-12-11T20:00:01.999872", "MEAN_MOTION": 15.53793046, "ECCENTRICITY": 0.00010723, "INCLINATION": 53.1596, "RA_OF_ASC_NODE": 191.4772, "ARG_OF_PERICENTER": 78.8373, "MEAN_ANOMALY": 33.1646, "EPHEMERIS_TYPE": 0, "CLASSIFICATION_TYPE": "U", "NORAD_CAT_ID": 66642, "ELEMENT_SET_NO": 999, "REV_AT_EPOCH": 386, "BSTAR": -0.035376465, "MEAN_MOTION_DOT": -0.02059331, "MEAN_MOTION_DDOT": 0}, "tle": {"line1": "1 66642U 25271AB  25345.83335648 -.02059331  00000+0 -35376-1 0  9999", "line2": "2 66642  53.1596 191.4772 0001072  78.8373  33.1646 15.53793046  3865"}}, "geometry": {"type": "Point", "coordinates": [165.14944347690934, -28.461416742277628]}}, {"type": "Feature", "properties": {"norad_id": 66643, "name": "STARLINK-35918", "group": "last-30-days", "lat": -31.225282811365435, "lon": 162.10416859393547, "alt_km": 416.35259473602946, "timestamp": "2025-12-12T07:43:19.258982+00:00", "meta": {"OBJECT_NAME": "STARLINK-35918", "OBJECT_ID": "2025-271AC", "EPOCH": "2025-12-11T20:00:01.999872", "MEAN_MOTION": 15.53790878, "ECCENTRICITY": 0.00010079, "INCLINATION": 53.1595, "RA_OF_ASC_NODE": 191.4852, "ARG_OF_PERICENTER": 79.802, "MEAN_ANOMALY": 28.3669, "EPHEMERIS_TYPE": 0, "CLASSIFICATION_TYPE": "U", "NORAD_CAT_ID": 66643, "ELEMENT_SET_NO": 999, "REV_AT_EPOCH": 409, "BSTAR": -0.035302469, "MEAN_MOTION_DOT": -0.02055305, "MEAN_MOTION_DDOT": 0}, "tle": {"line1": "1 66643U 25271AC  25345.83335648 -.02055305  00000+0 -35302-1 0  9996", "line2": "2 66643  53.1595 191.4852 0001007  79.8020  28.3669 15.53790878  4099"}}, "geometry": {"type": "Point", "coordinates": [162.10416859393547, -31.225282811365435]}}, {"type": "Feature", "properties": {"norad_id": 66644, "name": "STARLINK-35938", "group": "last-30-days", "lat": -29.852527069740685, "lon": 163.64784768098752, "alt_km": 416.2443060244623, "timestamp": "2025-12-12T07:43:19.258992+00:00", "meta": {"OBJECT_NAME": "STARLINK-35938", "OBJECT_ID": "2025-271AD", "EPOCH": "2025-12-11T20:00:01.999872", "MEAN_MOTION": 15.53789435, "ECCENTRICITY": 0.00011263, "INCLINATION": 53.1594, "RA_OF_ASC_NODE": 191.4817, "ARG_OF_PERICENTER": 75.3688, "MEAN_ANOMALY": 34.7187, "EPHEMERIS_TYPE": 0, "CLASSIFICATION_TYPE": "U", "NORAD_CAT_ID": 66644, "ELEMENT_SET_NO": 999, "REV_AT_EPOCH": 409, "BSTAR": -0.035286543, "MEAN_MOTION_DOT": -0.02054453, "MEAN_MOTION_DDOT": 0}, "tle": {"line1": "1 66644U 25271AD  25345.83335648 -.02054453  00000+0 -35287-1 0  9992", "line2": "2 66644  53.1594 191.4817 0001126  75.3688  34.7187 15.53789435  4096"}}, "geometry": {"type": "Point", "coordinates": [163.64784768098752, -29.852527069740685]}}, {"type": "Feature", "properties": {"norad_id": 66645, "name": "SHENZHOU-22", "group": "last-30-days", "lat": -29.647742360146736, "lon": -20.885400919373456, "alt_km": 391.08460025457407, "timestamp": "2025-12-12T07:43:19.259002+00:00", "meta": {"OBJECT_NAME": "SHENZHOU-22", "OBJECT_ID": "2025-272A", "EPOCH": "2025-12-11T19:37:47.505216", "MEAN_MOTION": 15.59116827, "ECCENTRICITY": 0.00085427, "INCLINATION": 41.4685, "RA_OF_ASC_NODE": 22.304, "ARG_OF_PERICENTER": 22.5495, "MEAN_ANOMALY": 337.5718, "EPHEMERIS_TYPE": 0, "CLASSIFICATION_TYPE": "U", "NORAD_CAT_ID": 66645, "ELEMENT_SET_NO": 999, "REV_AT_EPOCH": 26357, "BSTAR": 0.00035527983, "MEAN_MOTION_DOT": 0.00028382, "MEAN_MOTION_DDOT": 0}, "tle": {"line1": "1 66645U 25272A   25345.81791094  .00028382  00000+0  35528-3 0  9991", "line2": "2 66645  41.4685  22.3040 0008542  22.5495 337.5718 15.59116827263576"}}, "geometry": {"type": "Point", "coordinates": [-20.885400919373456, -29.647742360146736]}}, {"type": "Feature", "properties": {"norad_id": 66647, "name": "COSMOS 2597 (RODNIK-S 22)", "group": "last-30-days", "lat": 40.58391955144972, "lon": -66.81171338865889, "alt_km": 1497.2021632001424, "timestamp": "2025-12-12T07:43:19.259013+00:00", "meta": {"OBJECT_NAME": "COSMOS 2597 (RODNIK-S 22)", "OBJECT_ID": "2025-273A", "EPOCH": "2025-12-11T23:46:06.265056", "MEAN_MOTION": 12.41951295, "ECCENTRICITY": 0.00079029, "INCLINATION": 82.499, "RA_OF_ASC_NODE": 286.9143, "ARG_OF_PERICENTER": 290.9761, "MEAN_ANOMALY": 69.0472, "EPHEMERIS_TYPE": 0, "CLASSIFICATION_TYPE": "U", "NORAD_CAT_ID": 66647, "ELEMENT_SET_NO": 999, "REV_AT_EPOCH": 204, "BSTAR": 0.00010498762, "MEAN_MOTION_DOT": 2.4e-07, "MEAN_MOTION_DDOT": 0}, "tle": {"line1": "1 66647U 25273A   25345.99035029  .00000024  00000+0  10499-3 0  9995", "line2": "2 66647  82.4990 286.9143 0007902 290.9761  69.0472 12.41951295  2041"}}, "geometry": {"type": "Point", "coordinates": [-66.81171338865889, 40.58391955144972]}}, {"type": "Feature", "properties": {"norad_id": 66648, "name": "COSMOS 2598 (RODNIK-S 23)", "group": "last-30-days", "lat": 73.03377234222394, "lon": -47.72170443306081, "alt_km": 1491.9388525236245, "timestamp": "2025-12-12T07:43:19.259023+00:00", "meta": {"OBJECT_NAME": "COSMOS 2598 (RODNIK-S 23)", "OBJECT_ID": "2025-273B", "EPOCH": "2025-12-11T23:35:43.297728", "MEAN_MOTION": 12.43233424, "ECCENTRICITY": 0.00079855, "INCLINATION": 82.5028, "RA_OF_ASC_NODE": 286.9202, "ARG_OF_PERICENTER": 238.8815, "MEAN_ANOMALY": 121.1482, "EPHEMERIS_TYPE": 0, "CLASSIFICATION_TYPE": "U", "NORAD_CAT_ID": 66648, "ELEMENT_SET_NO": 999, "REV_AT_EPOCH": 204, "BSTAR": -3.8860384e-05, "MEAN_MOTION_DOT": 4e-08, "MEAN_MOTION_DDOT": 0}, "tle": {"line1": "1 66648U 25273B   25345.98314002  .00000004  00000+0 -38860-4 0  9998", "line2": "2 66648  82.5028 286.9202 0007985 238.8815 121.1482 12.43233424  2043"}}, "geometry": {"type": "Point", "coordinates": [-47.72170443306081, 73.03377234222394]}}]}